[{"OBJECT_NAME":"STARLINK-4602","OBJECT_ID":"2022-104AT","EPOCH":"2026-03-09T17:12:24.505920","MEAN_MOTION":15.08840116,"ECCENTRICITY":0.00012994,"INCLINATION":53.2167,"RA_OF_ASC_NODE":233.678,"ARG_OF_PERICENTER":85.3699,"MEAN_ANOMALY":274.7442,"EPHEMERIS_TYPE":0,"CLASSIFICATION_TYPE":"U","NORAD_CAT_ID":53629,"ELEMENT_SET_NO":999,"REV_AT_EPOCH":19576,"BSTAR":1.4951757e-5,"MEAN_MOTION_DOT":-5.0e-7,"MEAN_MOTION_DDOT":0},{"OBJECT_NAME":"FENGYUN 1C DEB","OBJECT_ID":"1999-025AHJ","EPOCH":"2026-03-09T18:03:49.415328","MEAN_MOTION":14.96033857,"ECCENTRICITY":0.01248359,"INCLINATION":98.7826,"RA_OF_ASC_NODE":350.0057,"ARG_OF_PERICENTER":174.7814,"MEAN_ANOMALY":185.4738,"EPHEMERIS_TYPE":0,"CLASSIFICATION_TYPE":"U","NORAD_CAT_ID":30496,"ELEMENT_SET_NO":999,"REV_AT_EPOCH":2444,"BSTAR":0.00050780955,"MEAN_MOTION_DOT":6.595e-5,"MEAN_MOTION_DDOT":0}]
